SL-16 R/B               
1 26070U 00006B   21253.61156754  .00000256  00000-0  15521-3 0  9999
2 26070  71.0027 307.2934 0015946 167.0309 193.1227 14.15470163116312
MTI                     
1 26102U 00014A   21253.18552087  .00018601  00000-0  20462-3 0  9998
2 26102  97.4576 164.3268 0006666  23.0058 337.1509 15.63190900194571
TITAN 4B R/B            
1 26474U 00047B   21253.52182302  .00000268  00000-0  33981-4 0  9994
2 26474  67.9923 276.6195 0051600  59.9172 300.7072 14.96214017146568
ENVISAT                 
1 27386U 02009A   21253.62367933  .00000039  00000-0  26351-4 0  9992
2 27386  98.1552 243.3549 0001294  85.3132  31.1533 14.38041073 23244
IDEFIX & ARIANE 42P R/B 
1 27422U 02021B   21253.30197834  .00000019  00000-0  24177-4 0  9995
2 27422  98.4090 203.3111 0012068 348.8036  11.2877 14.29329880  9437
AQUA                    
1 27424U 02022A   21253.54680030  .00000151  00000-0  43649-4 0  9991
2 27424  98.2131 193.6675 0002069  58.4584  57.8893 14.57110187 29425
CZ-4B R/B               
1 27432U 02024C   21253.63481418 -.00000033  00000-0  70386-5 0  9990
2 27432  99.0844 269.4553 0050193 347.6089 120.5297 14.14113601997275
MIDORI II (ADEOS-II)    
1 27597U 02056A   21252.83572860  .00000035  00000-0  31771-4 0  9995
2 27597  98.5690 196.4817 0002073  97.0417 263.1000 14.27514691975929
H-2A R/B                
1 27601U 02056E   21253.52899093  .00000090  00000-0  47370-4 0  9991
2 27601  98.1876 271.0233 0072468  17.2488 134.3430 14.32015483979107
CZ-4B R/B               
1 28059U 03049C   21253.25250054  .00000030  00000-0  18987-4 0  9996
2 28059  98.4938 181.0841 0049518 202.3660 157.5376 14.52667151948133
CZ-2C R/B               
1 28222U 04012C   21253.41525348  .00001112  00000-0  69141-4 0  9998
2 28222  97.7361 225.1146 0045010 291.6798 228.5753 15.11036417953923
SL-16 R/B               
1 28353U 04021B   21253.61854871  .00000199  00000-0  12890-3 0  9993
2 28353  70.9977  75.1920 0005085 348.9645  11.1364 14.14246629890780
CZ-4B R/B               
1 28415U 04035C   21253.61392122  .00000406  00000-0  30541-4 0  9998
2 28415  97.5577 294.6827 0049655 256.0774 103.4928 15.07203918931433
CZ-2C R/B               
1 28480U 04046B   21253.62613319  .00000014  00000-0  20753-4 0  9996
2 28480  98.0517 258.7620 0141273 331.9181 135.3186 14.25762109874562
ARIANE 5 R/B            
1 28499U 04049H   21253.27513715  .00000160  00000-0  27258-4 0  9998
2 28499  98.0764   2.9900 0090662 259.4780 122.1672 14.80150194902630
CZ-2D R/B               
1 28738U 05024B   21253.58970120  .00000841  00000-0  51794-4 0  9997
2 28738  97.3603 266.6070 0013424  70.3913 289.8766 15.12530918889435
SUZAKU (ASTRO-EII)      
1 28773U 05025A   21253.55859305  .00001981  00000-0  88986-4 0  9994
2 28773  31.3820 327.7078 0004445  60.9791 299.1301 15.18653214892414
ALOS (DAICHI)           
1 28931U 06002A   21253.37354980  .00000179  00000-0  43747-4 0  9999
2 28931  97.8949 224.4325 0002084  84.4169 275.7274 14.62877881833470
H-2A R/B                
1 28932U 06002B   21253.61131708  .00000306  00000-0  34174-4 0  9994
2 28932  98.3255 275.4738 0086749 289.1088 224.3404 14.92664516848287
AKARI (ASTRO-F)         
1 28939U 06005A   21253.57287822  .00005769  00000-0  13969-3 0  9994
2 28939  98.2378 287.2505 0085399 184.8139 175.2292 15.37829259849984
RESURS-DK 1             
1 29228U 06021A   21253.61832737  .00000236  00000-0  24959-4 0  9996
2 29228  69.9349 121.8374 0003042 173.9643 186.1555 15.02744154840335
GENESIS 1               
1 29252U 06029A   21253.10282009  .00001085  00000-0  60268-4 0  9992
2 29252  64.5207 270.1560 0051500 304.6394  54.9879 15.18836396836376
CZ-4B R/B               
1 29507U 06046C   21253.61890973  .00000970  00000-0  78736-4 0  9996
2 29507  97.7644 279.3809 0049122  87.8442 272.8406 15.01112610812885
CZ-2C R/B               
1 31114U 07010B   21253.13469657 -.00000004  00000-0  16436-4 0  9991
2 31114  98.2325  80.8934 0060480  36.6942 323.8354 14.19372630746798
COSMO-SKYMED 1          
1 31598U 07023A   21253.57062695  .00000005  00000-0  71888-5 0  9993
2 31598  97.8913  76.2632 0001286  83.4257 276.7087 14.82154197771506
GENESIS 2               
1 31789U 07028A   21253.11882193  .00000534  00000-0  36242-4 0  9994
2 31789  64.4949 312.6729 0012339  14.0538 346.0926 15.17896094783339
COSMOS 2428             
1 31792U 07029A   21253.39790966  .00000298  00000-0  18766-3 0  9992
2 31792  70.9121  47.5257 0006171 123.8600 236.3109 14.12349083732303
SL-16 R/B               
1 31793U 07029B   21253.33557712  .00000238  00000-0  14921-3 0  9990
2 31793  70.9775  21.3108 0002329 276.3048 124.6594 14.14446650733257
KORONAS-FOTON           
1 33504U 09003A   21252.77385134  .00000685  00000-0  33734-4 0  9990
2 33504  82.4421 135.6043 0019300 159.4988 200.7024 15.16099184695422
H-2A R/B                
1 38341U 12025E   21253.47027487  .00000234  00000-0  34946-4 0  9990
2 38341  98.5280  84.7820 0054376 225.6735 134.0014 14.84268194504118
CUSAT 2 & FALCON 9 R/B  
1 39271U 13055G   21253.25482257  .00005082  00000-0  11876-3 0  9995
2 39271  80.9649 141.1061 0562629 251.8562 102.0616 14.54123992415953
CZ-2C R/B               
1 39364U 13059B   21252.74387995  .00001807  00000-0  66484-4 0  9995
2 39364  97.2048 310.6176 0044601 252.3964 107.2402 15.28244676437305
SL-4 R/B                
1 39679U 14021B   21253.27016489  .00001271  00000-0  78091-4 0  9992
2 39679  51.6149 178.9104 0170177  65.4066 296.4530 15.07121128406841
ALOS-2                  
1 39766U 14029A   21253.54012858 -.00000031  00000-0  26766-5 0  9990
2 39766  97.9225 349.6844 0001478  90.1305 270.0067 14.79471770394244
CZ-2C R/B               
1 40306U 14071B   21253.33686895  .00008595  00000-0  15795-3 0  9994
2 40306  97.3789 212.7236 0012588 331.3286  28.7272 15.49398511383391
SL-27 R/B               
1 40354U 14084B   21253.45289028  .00002014  00000-0  48462-4 0  9999
2 40354  74.7383 176.3848 0035646 140.2426 220.1410 15.41342201377437
YAOGAN 29               
1 41038U 15069A   21253.56502268  .00000069  00000-0  15921-4 0  9991
2 41038  98.0427 247.7641 0000785 113.9140 246.2149 14.80522595312878
ASTRO-H (HITOMI)        
1 41337U 16012A   21253.47432207  .00000451  00000-0  29515-4 0  9996
2 41337  31.0060  36.0139 0012285 199.4817 160.5350 14.98887969305073
HXMT (HUIYAN)           
1 42758U 17034A   21253.54929840  .00000424  00000-0  39733-4 0  9994
2 42758  43.0172  85.9998 0009591 326.3463  81.6059 15.09296166233871
CZ-2C R/B               
1 43521U 18054D   21253.41800658  .00000811  00000-0  45406-4 0  9991
2 43521  35.1532 285.6297 0081061 128.6859 232.1139 15.11658733177264
AEOLUS                  
1 43600U 18066A   21252.99923228 -.00181537  00000-0 -73794-3 0  9990
2 43600  96.7014 258.4990 0006279 108.9124 276.8710 15.86515211176659
SAOCOM 1A               
1 43641U 18076A   21253.57905095  .00000044  00000-0  12062-4 0  9996
2 43641  97.8884  79.2872 0001400  75.6392 284.4974 14.82154369158270
SAOCOM 1B               
1 46265U 20059A   21253.54266329  .00000038  00000-0  11304-4 0  9993
2 46265  97.8895  78.3126 0001422  80.0904 280.0471 14.82156910 55669
2020-063G               
1 46395U 20063G   21253.41421585  .00047565  11988-4  13902-3 0  9997
2 46395  50.2001 233.2795 0006837 115.4294 244.7401 15.93344192 58802
SL-4 R/B                
1 47547U 21008B   21252.99196823  .00063424  58321-5  21036-3 0  9995
2 47547  67.1374 141.4375 0357143 246.2632 110.0685 15.32895661 33272
TIANHE                  
1 48274U 21035A   21253.42368056  .00009123  00000-0  10625-3 0  9995
2 48274  41.4717 122.9776 0001792 278.3148  73.0891 15.61754943 21025
